[{"OBJECT_NAME":"SUPERVIEW NEO-3 02","OBJECT_ID":"2025-051A","EPOCH":"2026-03-09T23:45:14.766336","MEAN_MOTION":15.23140616,"ECCENTRICITY":0.00022991,"INCLINATION":97.4564,"RA_OF_ASC_NODE":148.8655,"ARG_OF_PERICENTER":127.1916,"MEAN_ANOMALY":232.9531,"EPHEMERIS_TYPE":0,"CLASSIFICATION_TYPE":"U","NORAD_CAT_ID":63208,"ELEMENT_SET_NO":999,"REV_AT_EPOCH":5473,"BSTAR":0.00055163921,"MEAN_MOTION_DOT":0.00012967,"MEAN_MOTION_DDOT":0},{"OBJECT_NAME":"CZ-6A DEB","OBJECT_ID":"2024-140ZB","EPOCH":"2026-03-09T13:53:53.181600","MEAN_MOTION":15.04943741,"ECCENTRICITY":0.0099448,"INCLINATION":89.0521,"RA_OF_ASC_NODE":283.407,"ARG_OF_PERICENTER":138.6562,"MEAN_ANOMALY":222.2259,"EPHEMERIS_TYPE":0,"CLASSIFICATION_TYPE":"U","NORAD_CAT_ID":61434,"ELEMENT_SET_NO":999,"REV_AT_EPOCH":8386,"BSTAR":0.0022399,"MEAN_MOTION_DOT":0.00035579,"MEAN_MOTION_DDOT":0}]
